STARLINK-2022           
1 47643U 21012Z   24200.44079865 -.00001430  00000+0 -77150-4 0  9994
2 47643  53.0536 221.7499 0001404  82.3960 277.7188 15.06387879189427
